{"epoch":1784710044,"count":18256,"objects":[{"id":"62463","name":"STARLINK-11455","type":"PAYLOAD","l1":"1 62463U 24254B   26202.58335648 -.00155176  00000-0 -12253-2 0  9994","l2":"2 62463  43.0004 136.3783 0001707 261.9282 113.4491 15.70899863  5992"},{"id":"62465","name":"STARLINK-11178","type":"PAYLOAD","l1":"1 62465U 24254D   26202.18322244  .00140688  00000-0  10803-2 0  9999","l2":"2 62465  43.0011 138.5660 0002015 252.9203 107.1444 15.70864672 90235"},{"id":"62466","name":"STARLINK-11506","type":"PAYLOAD","l1":"1 62466U 24254E   26202.52225229  .00251766  00000-0  18963-2 0  9998","l2":"2 62466  43.0006 135.9245 0001091 304.0492  56.0272 15.70971154 90293"},{"id":"62467","name":"STARLINK-11486","type":"PAYLOAD","l1":"1 62467U 24254F   26202.18853308  .00070026  00000-0  54450-3 0  9996","l2":"2 62467  43.0007 138.6077 0001668 270.1293  89.9384 15.70845540 90399"},{"id":"62468","name":"STARLINK-11511","type":"PAYLOAD","l1":"1 62468U 24254G   26202.23087863  .00141800  00000-0  10886-2 0  9991","l2":"2 62468  43.0014 138.0537 0001536 263.7034  96.3659 15.70866751 90404"},{"id":"62469","name":"STARLINK-11505","type":"PAYLOAD","l1":"1 62469U 24254H   26201.83876208  .00125583  00000-0  96435-3 0  9991","l2":"2 62469  42.9982 140.2660 0000768 225.7441 134.3364 15.70917392 90331"},{"id":"62470","name":"STARLINK-11497","type":"PAYLOAD","l1":"1 62470U 24254J   26202.17260309  .00174875  00000-0  13358-2 0  9990","l2":"2 62470  43.0017 138.4778 0002135 251.3746 108.6890 15.70876290 90391"},{"id":"62471","name":"STARLINK-11477","type":"PAYLOAD","l1":"1 62471U 24254K   26201.83345140  .00132582  00000-0  10167-2 0  9994","l2":"2 62471  42.9977 140.2225 0000588 261.9817  98.0983 15.70925743 90336"},{"id":"62472","name":"STARLINK-11500","type":"PAYLOAD","l1":"1 62472U 24254L   26202.52756118  .00180559  00000-0  13780-2 0  9994","l2":"2 62472  42.9995 135.9648 0000781 298.6101  61.4688 15.70879584 89925"},{"id":"62473","name":"STARLINK-11464","type":"PAYLOAD","l1":"1 62473U 24254M   26202.24149566  .00076545  00000-0  59444-3 0  9994","l2":"2 62473  43.0011 138.1361 0001737 250.6359 109.4321 15.70843886 90452"},{"id":"62474","name":"STARLINK-11502","type":"PAYLOAD","l1":"1 62474U 24254N   26201.84406747  .00132288  00000-0  10162-2 0  9997","l2":"2 62474  43.0010 140.3061 0002031 265.1985  94.8650 15.70883257 90344"},{"id":"62475","name":"STARLINK-32657","type":"PAYLOAD","l1":"1 62475U 24254P   26202.46210925  .00011365  00000-0  42148-3 0  9990","l2":"2 62475  42.9985 344.1877 0001330 224.8902 135.1842 15.27610518 87927"},{"id":"62476","name":"STARLINK-32734","type":"PAYLOAD","l1":"1 62476U 24254Q   26202.42033937  .00011998  00000-0  44459-3 0  9992","l2":"2 62476  43.0009 341.2776 0000810 269.7025  90.3734 15.27597502 88109"},{"id":"62477","name":"STARLINK-32733","type":"PAYLOAD","l1":"1 62477U 24254R   26201.72664217  .00006468  00000-0  24428-3 0  9996","l2":"2 62477  43.0035 344.6658 0001619 268.0483  92.0183 15.27589689 88006"},{"id":"62478","name":"STARLINK-32707","type":"PAYLOAD","l1":"1 62478U 24254S   26202.41006029  .00010404  00000-0  38695-3 0  9991","l2":"2 62478  42.9997 341.1968 0001548 279.5880  80.4796 15.27589343 88106"},{"id":"62479","name":"STARLINK-32705","type":"PAYLOAD","l1":"1 62479U 24254T   26202.42501892  .00011859  00000-0  43957-3 0  9993","l2":"2 62479  43.0013 333.5255 0002026 279.2849  80.7773 15.27594951 88037"},{"id":"62480","name":"STARLINK-32743","type":"PAYLOAD","l1":"1 62480U 24254U   26202.43818473  .00013936  00000-0  51468-3 0  9996","l2":"2 62480  42.9991 340.5482 0001018 257.3207 102.7531 15.27599344 88114"},{"id":"62481","name":"STARLINK-32753","type":"PAYLOAD","l1":"1 62481U 24254V   26202.64976054  .00025743  00000-0  94071-3 0  9996","l2":"2 62481  42.9998 339.5539 0000390 244.7288 115.3524 15.27616334 88148"},{"id":"62482","name":"STARLINK-32699","type":"PAYLOAD","l1":"1 62482U 24254W   26202.12874431  .00004580  00000-0  17591-3 0  9994","l2":"2 62482  43.0042 345.9875 0003102 264.3594  95.6905 15.27571563 87873"},{"id":"62483","name":"THURAYA 4","type":"PAYLOAD","l1":"1 62483U 25001A   26202.26870067  .00000140  00000-0  00000-0 0  9994","l2":"2 62483   0.0215  77.5646 0000260  72.3689 290.1415  1.00272460  4515"},{"id":"62485","name":"SJ-25","type":"PAYLOAD","l1":"1 62485U 25002A   26202.53794919 -.00000352  00000-0  00000+0 0  9993","l2":"2 62485   5.1929  60.9454 0050795 176.6777  22.4880  1.00276816  5705"},{"id":"62487","name":"STARLINK-32713","type":"PAYLOAD","l1":"1 62487U 25003A   26202.48888109  .00022244  00000-0  81484-3 0  9997","l2":"2 62487  42.9988 253.4163 0002120 270.5096  89.5513 15.27602016 87115"},{"id":"62488","name":"STARLINK-32732","type":"PAYLOAD","l1":"1 62488U 25003B   26202.19392245  .00010080  00000-0  37509-3 0  9991","l2":"2 62488  42.9991 254.6315 0000922 223.5763 136.5016 15.27601080 86973"},{"id":"62489","name":"STARLINK-32328","type":"PAYLOAD","l1":"1 62489U 25003C   26202.56967155 -.00008009  00000-0 -28180-3 0  9996","l2":"2 62489  42.9986 253.1555 0001224 271.8321  88.2391 15.27581993 87149"},{"id":"62490","name":"STARLINK-32332","type":"PAYLOAD","l1":"1 62490U 25003D   26202.49273277  .00012794  00000-0  47338-3 0  9995","l2":"2 62490  42.9998 253.4424 0001412 271.7462  88.3228 15.27597859 87111"},{"id":"62491","name":"STARLINK-32717","type":"PAYLOAD","l1":"1 62491U 25003E   26202.21191433  .00017831  00000-0  65567-3 0  9990","l2":"2 62491  43.0010 254.7790 0001865 270.9224  89.1414 15.27592323 87092"},{"id":"62492","name":"STARLINK-32757","type":"PAYLOAD","l1":"1 62492U 25003F   26202.17222626  .00008228  00000-0  30806-3 0  9993","l2":"2 62492  42.9983 255.3302 0001616 278.3923  81.6745 15.27592503 86967"},{"id":"62493","name":"STARLINK-32731","type":"PAYLOAD","l1":"1 62493U 25003G   26202.51200853  .00011627  00000-0  43122-3 0  9992","l2":"2 62493  43.0005 253.5826 0001129 278.2873  81.7851 15.27591773 87135"},{"id":"62494","name":"STARLINK-32694","type":"PAYLOAD","l1":"1 62494U 25003H   26202.20162168 -.00009368  00000-0 -33125-3 0  9998","l2":"2 62494  43.0024 254.6966 0001856 288.9593  71.1058 15.27584935 87097"},{"id":"62495","name":"STARLINK-32708","type":"PAYLOAD","l1":"1 62495U 25003J   26202.49529429  .00016797  00000-0  61815-3 0  9996","l2":"2 62495  42.9982 253.4571 0003792 291.0880  68.9566 15.27595546 87013"},{"id":"62496","name":"STARLINK-32718","type":"PAYLOAD","l1":"1 62496U 25003K   26202.19778276  .00008945  00000-0  33406-3 0  9991","l2":"2 62496  43.0016 254.6671 0002642 285.2022  74.8537 15.27591721 86973"},{"id":"62497","name":"STARLINK-32729","type":"PAYLOAD","l1":"1 62497U 25003L   26202.14010296  .00019287  00000-0  70766-3 0  9999","l2":"2 62497  43.0015 255.0891 0000972 220.7875 139.2904 15.27622736 87084"},{"id":"62498","name":"STARLINK-32739","type":"PAYLOAD","l1":"1 62498U 25003M   26202.22090839  .00010475  00000-0  38951-3 0  9990","l2":"2 62498  43.0000 254.8373 0001361 256.6476 103.4224 15.27588747 87046"},{"id":"62499","name":"STARLINK-32714","type":"PAYLOAD","l1":"1 62499U 25003N   26202.51072543  .00009283  00000-0  34622-3 0  9991","l2":"2 62499  42.9990 253.5750 0001566 275.0035  85.0638 15.27599242 87137"},{"id":"62500","name":"STARLINK-32685","type":"PAYLOAD","l1":"1 62500U 25003P   26202.50301209  .00015479  00000-0  57053-3 0  9994","l2":"2 62500  42.9982 253.5161 0001429 277.5702  82.4987 15.27596933 87089"},{"id":"62501","name":"STARLINK-32691","type":"PAYLOAD","l1":"1 62501U 25003Q   26202.41578844  .00010793  00000-0  40078-3 0  9999","l2":"2 62501  43.0000 253.7197 0001535 274.6007  85.4670 15.27609861 87119"},{"id":"62502","name":"STARLINK-32788","type":"PAYLOAD","l1":"1 62502U 25003R   26202.15038943  .00010262  00000-0  38163-3 0  9995","l2":"2 62502  43.0006 255.1716 0001756 281.4032  78.6623 15.27605940 86966"},{"id":"62503","name":"STARLINK-32768","type":"PAYLOAD","l1":"1 62503U 25003S   26202.19906685  .00009322  00000-0  34779-3 0  9991","l2":"2 62503  43.0031 254.6688 0001564 274.5968  85.4705 15.27585283 86970"},{"id":"62504","name":"STARLINK-32792","type":"PAYLOAD","l1":"1 62504U 25003T   26202.19006658  .00010898  00000-0  40483-3 0  9992","l2":"2 62504  42.9986 254.5961 0001663 171.0374 189.0508 15.27591135 86978"},{"id":"62505","name":"STARLINK-32725","type":"PAYLOAD","l1":"1 62505U 25003U   26202.45289647  .00010293  00000-0  38291-3 0  9996","l2":"2 62505  43.0009 253.1202 0001088 275.2105  84.8623 15.27590242 87014"},{"id":"62506","name":"STARLINK-32681","type":"PAYLOAD","l1":"1 62506U 25003V   26202.48722236  .00013405  00000-0  49555-3 0  9999","l2":"2 62506  43.0014 234.8034 0001638 262.2676  97.7990 15.27593705 87343"},{"id":"62507","name":"STARLINK-32679","type":"PAYLOAD","l1":"1 62507U 25003W   26202.44918339  .00007852  00000-0  29451-3 0  9999","l2":"2 62507  42.9984 253.9300 0002233 284.1229  75.9374 15.27585915 87129"},{"id":"62508","name":"STARLINK-32749","type":"PAYLOAD","l1":"1 62508U 25003X   26202.14395572  .00012255  00000-0  45396-3 0  9994","l2":"2 62508  43.0011 255.1185 0001818 262.4448  97.6198 15.27589762 86968"},{"id":"62509","name":"STARLINK-32744","type":"PAYLOAD","l1":"1 62509U 25003Y   26202.50686861  .00011430  00000-0  42406-3 0  9992","l2":"2 62509  42.9985 253.5457 0001418 277.1072  82.9618 15.27594644 87019"},{"id":"62510","name":"STARLINK-32701","type":"PAYLOAD","l1":"1 62510U 25003Z   26202.41963785  .00009691  00000-0  36108-3 0  9995","l2":"2 62510  43.0027 253.7512 0002292 279.8342  80.2251 15.27590944 87006"},{"id":"62511","name":"STARLINK-11452","type":"PAYLOAD","l1":"1 62511U 25004A   26202.43568796  .00183308  00000-0  13972-2 0  9993","l2":"2 62511  42.9994 344.5254 0001839 267.7655  92.3002 15.70900501 89168"},{"id":"62512","name":"STARLINK-11443","type":"PAYLOAD","l1":"1 62512U 25004B   26202.46754684  .00152146  00000-0  11673-2 0  9992","l2":"2 62512  43.0002 344.7813 0003348 291.2088  68.8421 15.70842333 88242"}]}